{
  "norad_id": 58942,
  "name": "STARLINK-31354",
  "history": [
    {
      "epoch": "2026-03-28T17:55:47.109792Z",
      "apogee_km": 475.73877446275765,
      "perigee_km": 474.7266688222662,
      "latitude_deg": -5.872706283082284e-05,
      "longitude_deg": 126.16368079943143,
      "height_km": 476.3281581775882,
      "semi_major_axis_km": 6853.369721642512,
      "eccentricity": 7.384e-05,
      "inclination_deg": 53.1596,
      "raan_deg": 221.2731,
      "arg_perigee_deg": 112.8632,
      "mean_anomaly_deg": 247.2446,
      "mean_motion_rev_day": 15.30194088
    }
  ]
}