{"fetched_at":"2026-03-30T06:02:59Z","count":15439,"tles":[{"name":"STARLINK-31354","line1":"1 58942U 24027M   26087.74707303  .00000116  00000+0  16050-4 0  9990","line2":"2 58942  53.1596 221.2731 0000738 112.8632 247.2446 15.30194088120245","category":"Starlink"}]}